{"type": "FeatureCollection", "features": [ {"type": "Feature", "properties": {"norad_id": 66717, "name": "FLOCK 4H-14", "group": "last-30-days", "lat": 54.907024298553445, "lon": -98.74681866369568, "alt_km": 504.4213702763027, "timestamp": "2025-12-24T22:42:20.745173+00:00", "meta": {"OBJECT_NAME": "FLOCK 4H-14", "OBJECT_ID": "2025-276BD", "EPOCH": "2025-12-24T06:20:36.923136", "MEAN_MOTION": 15.18362665, "ECCENTRICITY": 0.00016981, "INCLINATION": 97.4413, "RA_OF_ASC_NODE": 69.862, "ARG_OF_PERICENTER": 131.3272, "MEAN_ANOMALY": 228.8108, "EPHEMERIS_TYPE": 0, "CLASSIFICATION_TYPE": "U", "NORAD_CAT_ID": 66717, "ELEMENT_SET_NO": 999, "REV_AT_EPOCH": 312, "BSTAR": 0.00034791126, "MEAN_MOTION_DOT": 7.082e-05, "MEAN_MOTION_DDOT": 0}, "tle": {"line1": "1 66717U 25276BD  25358.26431624  .00007082  00000+0  34791-3 0  9993", "line2": "2 66717  97.4413  69.8620 0001698 131.3272 228.8108 15.18362665  3129"}}, "geometry": {"type": "Point", "coordinates": [-98.74681866369568, 54.907024298553445]}}, {"type": "Feature", "properties": {"norad_id": 66718, "name": "FLOCK 4H-15", "group": "last-30-days", "lat": 13.398474409429552, "lon": 68.705041304227, "alt_km": 516.5484947340883, "timestamp": "2025-12-24T22:42:20.745207+00:00", "meta": {"OBJECT_NAME": "FLOCK 4H-15", "OBJECT_ID": "2025-276BE", "EPOCH": "2025-12-24T05:14:02.423040", "MEAN_MOTION": 15.17122506, "ECCENTRICITY": 0.00031189, "INCLINATION": 97.4418, "RA_OF_ASC_NODE": 69.7744, "ARG_OF_PERICENTER": 262.0111, "MEAN_ANOMALY": 98.0769, "EPHEMERIS_TYPE": 0, "CLASSIFICATION_TYPE": "U", "NORAD_CAT_ID": 66718, "ELEMENT_SET_NO": 999, "REV_AT_EPOCH": 386, "BSTAR": 0.00061933067, "MEAN_MOTION_DOT": 0.00012226, "MEAN_MOTION_DDOT": 0}, "tle": {"line1": "1 66718U 25276BE  25358.21808360  .00012226  00000+0  61933-3 0  9998", "line2": "2 66718  97.4418  69.7744 0003118 262.0111  98.0769 15.17122506  3862"}}, "geometry": {"type": "Point", "coordinates": [68.705041304227, 13.398474409429552]}}, {"type": "Feature", "properties": {"norad_id": 66719, "name": "FLOCK 4H-16", "group": "last-30-days", "lat": 22.622647881647154, "lon": 67.37595538628054, "alt_km": 519.7550486764949, "timestamp": "2025-12-24T22:42:20.745218+00:00", "meta": {"OBJECT_NAME": "FLOCK 4H-16", "OBJECT_ID": "2025-276BF", "EPOCH": "2025-12-24T03:36:32.783616", "MEAN_MOTION": 15.17223362, "ECCENTRICITY": 0.00071256, "INCLINATION": 97.4433, "RA_OF_ASC_NODE": 69.7176, "ARG_OF_PERICENTER": 194.987, "MEAN_ANOMALY": 165.1154, "EPHEMERIS_TYPE": 0, "CLASSIFICATION_TYPE": "U", "NORAD_CAT_ID": 66719, "ELEMENT_SET_NO": 999, "REV_AT_EPOCH": 385, "BSTAR": -0.010371176, "MEAN_MOTION_DOT": -0.00200754, "MEAN_MOTION_DDOT": 0}, "tle": {"line1": "1 66719U 25276BF  25358.15037944 -.00200754  00000+0 -10371-1 0  9999", "line2": "2 66719  97.4433  69.7176 0007125 194.9870 165.1154 15.17223362  3851"}}, "geometry": {"type": "Point", "coordinates": [67.37595538628054, 22.622647881647154]}}, {"type": "Feature", "properties": {"norad_id": 66720, "name": "FLOCK 4H-17", "group": "last-30-days", "lat": 77.3406912173132, "lon": -73.8674461365689, "alt_km": 504.18737385067743, "timestamp": "2025-12-24T22:42:20.745229+00:00", "meta": {"OBJECT_NAME": "FLOCK 4H-17", "OBJECT_ID": "2025-276BG", "EPOCH": "2025-12-24T08:00:03.000384", "MEAN_MOTION": 15.18107936, "ECCENTRICITY": 0.00027451, "INCLINATION": 97.4437, "RA_OF_ASC_NODE": 69.9326, "ARG_OF_PERICENTER": 183.4874, "MEAN_ANOMALY": 170.4379, "EPHEMERIS_TYPE": 0, "CLASSIFICATION_TYPE": "U", "NORAD_CAT_ID": 66720, "ELEMENT_SET_NO": 999, "REV_AT_EPOCH": 130, "BSTAR": -0.0023881973, "MEAN_MOTION_DOT": -0.00048418, "MEAN_MOTION_DDOT": 0}, "tle": {"line1": "1 66720U 25276BG  25358.33336806 -.00048418  00000+0 -23882-2 0  9999", "line2": "2 66720  97.4437  69.9326 0002745 183.4874 170.4379 15.18107936  1301"}}, "geometry": {"type": "Point", "coordinates": [-73.8674461365689, 77.3406912173132]}}, {"type": "Feature", "properties": {"norad_id": 66721, "name": "FLOCK 4H-18", "group": "last-30-days", "lat": 16.58991200947863, "lon": 68.24447629739339, "alt_km": 515.4614456777654, "timestamp": "2025-12-24T22:42:20.745238+00:00", "meta": {"OBJECT_NAME": "FLOCK 4H-18", "OBJECT_ID": "2025-276BH", "EPOCH": "2025-12-24T05:13:12.888192", "MEAN_MOTION": 15.17156642, "ECCENTRICITY": 0.00025171, "INCLINATION": 97.4378, "RA_OF_ASC_NODE": 69.7599, "ARG_OF_PERICENTER": 276.7178, "MEAN_ANOMALY": 83.3769, "EPHEMERIS_TYPE": 0, "CLASSIFICATION_TYPE": "U", "NORAD_CAT_ID": 66721, "ELEMENT_SET_NO": 999, "REV_AT_EPOCH": 386, "BSTAR": 0.00054677245, "MEAN_MOTION_DOT": 0.00010794, "MEAN_MOTION_DDOT": 0}, "tle": {"line1": "1 66721U 25276BH  25358.21751028  .00010794  00000+0  54677-3 0  9995", "line2": "2 66721  97.4378  69.7599 0002517 276.7178  83.3769 15.17156642  3861"}}, "geometry": {"type": "Point", "coordinates": [68.24447629739339, 16.58991200947863]}}, {"type": "Feature", "properties": {"norad_id": 66722, "name": "FLOCK 4H-19", "group": "last-30-days", "lat": 61.92204294277993, "lon": -95.30375029541658, "alt_km": 503.52543033910933, "timestamp": "2025-12-24T22:42:20.745248+00:00", "meta": {"OBJECT_NAME": "FLOCK 4H-19", "OBJECT_ID": "2025-276BJ", "EPOCH": "2025-12-24T06:22:27.546240", "MEAN_MOTION": 15.18266204, "ECCENTRICITY": 0.00025134, "INCLINATION": 97.4386, "RA_OF_ASC_NODE": 69.8501, "ARG_OF_PERICENTER": 149.9011, "MEAN_ANOMALY": 210.2368, "EPHEMERIS_TYPE": 0, "CLASSIFICATION_TYPE": "U", "NORAD_CAT_ID": 66722, "ELEMENT_SET_NO": 999, "REV_AT_EPOCH": 316, "BSTAR": 0.00075142681, "MEAN_MOTION_DOT": 0.00015349, "MEAN_MOTION_DDOT": 0}, "tle": {"line1": "1 66722U 25276BJ  25358.26559660  .00015349  00000+0  75143-3 0  9991", "line2": "2 66722  97.4386  69.8501 0002513 149.9011 210.2368 15.18266204  3164"}}, "geometry": {"type": "Point", "coordinates": [-95.30375029541658, 61.92204294277993]}}, {"type": "Feature", "properties": {"norad_id": 66723, "name": "FLOCK 4H-20", "group": "last-30-days", "lat": 58.19766515899333, "lon": -97.29520302896387, "alt_km": 503.75065730242386, "timestamp": "2025-12-24T22:42:20.745258+00:00", "meta": {"OBJECT_NAME": "FLOCK 4H-20", "OBJECT_ID": "2025-276BK", "EPOCH": "2025-12-24T06:21:28.597248", "MEAN_MOTION": 15.18324329, "ECCENTRICITY": 0.00029816, "INCLINATION": 97.4421, "RA_OF_ASC_NODE": 69.8652, "ARG_OF_PERICENTER": 165.2162, "MEAN_ANOMALY": 194.916, "EPHEMERIS_TYPE": 0, "CLASSIFICATION_TYPE": "U", "NORAD_CAT_ID": 66723, "ELEMENT_SET_NO": 999, "REV_AT_EPOCH": 312, "BSTAR": 0.0005772457, "MEAN_MOTION_DOT": 0.0001179, "MEAN_MOTION_DDOT": 0}, "tle": {"line1": "1 66723U 25276BK  25358.26491432  .00011790  00000+0  57725-3 0  9996", "line2": "2 66723  97.4421  69.8652 0002981 165.2162 194.9160 15.18324329  3126"}}, "geometry": {"type": "Point", "coordinates": [-97.29520302896387, 58.19766515899333]}}, {"type": "Feature", "properties": {"norad_id": 66724, "name": "FLOCK 4H-21", "group": "last-30-days", "lat": 54.65849257198298, "lon": -98.86058202147728, "alt_km": 504.1403499309099, "timestamp": "2025-12-24T22:42:20.745271+00:00", "meta": {"OBJECT_NAME": "FLOCK 4H-21", "OBJECT_ID": "2025-276BL", "EPOCH": "2025-12-24T06:20:36.305376", "MEAN_MOTION": 15.18435402, "ECCENTRICITY": 0.00021332, "INCLINATION": 97.4388, "RA_OF_ASC_NODE": 69.8514, "ARG_OF_PERICENTER": 168.0427, "MEAN_ANOMALY": 192.0858, "EPHEMERIS_TYPE": 0, "CLASSIFICATION_TYPE": "U", "NORAD_CAT_ID": 66724, "ELEMENT_SET_NO": 999, "REV_AT_EPOCH": 312, "BSTAR": 0.0021510303, "MEAN_MOTION_DOT": 0.00044453, "MEAN_MOTION_DDOT": 0}, "tle": {"line1": "1 66724U 25276BL  25358.26430909  .00044453  00000+0  21510-2 0  9993", "line2": "2 66724  97.4388  69.8514 0002133 168.0427 192.0858 15.18435402  3128"}}, "geometry": {"type": "Point", "coordinates": [-98.86058202147728, 54.65849257198298]}}, {"type": "Feature", "properties": {"norad_id": 66725, "name": "FLOCK 4H-22", "group": "last-30-days", "lat": 44.32118519657108, "lon": 63.15376804291669, "alt_km": 510.24568413031466, "timestamp": "2025-12-24T22:42:20.745286+00:00", "meta": {"OBJECT_NAME": "FLOCK 4H-22", "OBJECT_ID": "2025-276BM", "EPOCH": "2025-12-24T05:06:03.659040", "MEAN_MOTION": 15.1750665, "ECCENTRICITY": 0.00015225, "INCLINATION": 97.4374, "RA_OF_ASC_NODE": 69.7628, "ARG_OF_PERICENTER": 282.8806, "MEAN_ANOMALY": 77.2257, "EPHEMERIS_TYPE": 0, "CLASSIFICATION_TYPE": "U", "NORAD_CAT_ID": 66725, "ELEMENT_SET_NO": 999, "REV_AT_EPOCH": 386, "BSTAR": 0.00035165663, "MEAN_MOTION_DOT": 6.985e-05, "MEAN_MOTION_DDOT": 0}, "tle": {"line1": "1 66725U 25276BM  25358.21254235  .00006985  00000+0  35166-3 0  9996", "line2": "2 66725  97.4374  69.7628 0001522 282.8806  77.2257 15.17506650  3867"}}, "geometry": {"type": "Point", "coordinates": [63.15376804291669, 44.32118519657108]}}, {"type": "Feature", "properties": {"norad_id": 66726, "name": "FLOCK 4H-23", "group": "last-30-days", "lat": 33.20863950263883, "lon": 65.59424495191577, "alt_km": 505.85471526042056, "timestamp": "2025-12-24T22:42:20.745298+00:00", "meta": {"OBJECT_NAME": "FLOCK 4H-23", "OBJECT_ID": "2025-276BN", "EPOCH": "2025-12-24T05:10:53.265792", "MEAN_MOTION": 15.19231787, "ECCENTRICITY": 0.0010661, "INCLINATION": 97.4416, "RA_OF_ASC_NODE": 69.7821, "ARG_OF_PERICENTER": 256.9845, "MEAN_ANOMALY": 103.02, "EPHEMERIS_TYPE": 0, "CLASSIFICATION_TYPE": "U", "NORAD_CAT_ID": 66726, "ELEMENT_SET_NO": 999, "REV_AT_EPOCH": 386, "BSTAR": 0.062263634, "MEAN_MOTION_DOT": 0.01430648, "MEAN_MOTION_DDOT": 0}, "tle": {"line1": "1 66726U 25276BN  25358.21589428  .01430648  00000+0  62264-1 0  9997", "line2": "2 66726  97.4416  69.7821 0010661 256.9845 103.0200 15.19231787  3863"}}, "geometry": {"type": "Point", "coordinates": [65.59424495191577, 33.20863950263883]}}]}